# From MPC191597
58P/Jackson-Neujmin,e,13.0819,159.0200,200.5685,4.092643,0.1190415,0.66125372,265.9288,07/07.0/2026,2000,g 15.5,6.0
# From MPC191598
59P/Kearns-Kwee,e,9.3576,312.7261,127.7143,4.477284,0.1040356,0.47693284,295.7338,07/07.0/2026,2000,g  7.0,6.0
# From MPC191598
60P/Tsuchinshan,e,3.5797,267.3973,216.9301,3.529847,0.1486176,0.53367132,52.2213,07/07.0/2026,2000,g 11.5,6.0
# From MPC191598
61P/Shajn-Schaldach,e,5.9950,162.9501,221.7143,3.691828,0.1389447,0.42256446,188.0491,07/07.0/2026,2000,g  6.0,10.0
# From MPC191598
62P/Tsuchinshan,e,4.7353,68.6543,47.3673,3.371887,0.1591822,0.62468995,147.1845,07/07.0/2026,2000,g  8.0,10.0
# From MPEC 2026-N12
63P/Wild,e,19.6199,357.7377,168.7395,5.654012,0.0733110,0.65069936,0.0631,07/07.0/2026,2000,g 10.5,6.0
# From MPC191598
64P/Swift-Gehrels,e,8.9549,299.7615,97.3317,4.452626,0.1049010,0.68808476,293.5569,07/07.0/2026,2000,g  9.5,12.0
# From MPEC 2026-N12
65P/Gunn,e,9.1750,61.9639,213.6138,3.890993,0.1284143,0.24807371,49.5468,07/07.0/2026,2000,g  5.0,6.0
# From MPC191598
66P/duToit,e,18.6476,21.8752,257.3070,6.070615,0.0658954,0.78496808,196.4150,07/07.0/2026,2000,g 12.0,3.6
# From MPC191598
67P/Churyumov-Gerasimenko,e,3.8663,36.2906,22.2373,3.458930,0.1532115,0.64953518,261.5600,07/07.0/2026,2000,g 11.0,4.0
# From MPC191598
68P/Klemola,e,11.0969,175.0973,153.1690,4.964730,0.0890965,0.63565042,217.1673,07/07.0/2026,2000,g 10.0,4.0
# From MPC191599
69P/Taylor,e,22.0613,104.8052,343.5583,3.878561,0.1290322,0.41463777,343.4207,07/07.0/2026,2000,g  9.5,12.0
# From MPEC 2026-J11
70P/Kojima,e,6.6036,119.2358,1.8304,3.674545,0.1399261,0.45496701,238.5397,07/07.0/2026,2000,g 11.0,6.0
# From MPC191599
71P/Clark,e,9.1549,58.6838,210.9817,3.190458,0.1729516,0.47998852,219.5796,07/07.0/2026,2000,g  9.8,6.0
# From MPC191599
73P/Schwassmann-Wachmann,e,6.2330,52.5231,214.4328,3.059423,0.1841810,0.70165570,261.7030,07/07.0/2026,2000,g 11.5,6.0
# From MPC106348
73P-BT/Schwassmann-Wachmann,e,6.1948,52.5889,214.3025,3.060834,0.1840537,0.70184772,261.4172,07/07.0/2026,2000,g 11.5,6.0
# From MPC194199
74P/Smirnova-Chernykh,e,5.7850,47.7696,57.9356,5.216680,0.0827204,0.07312197,12.5654,07/07.0/2026,2000,g  5.0,6.0
# From MPEC 2026-KB8
76P/West-Kohoutek-Ikemura,e,30.4966,84.1078,0.0196,3.467764,0.1526264,0.53954169,12.8765,07/07.0/2026,2000,g  8.0,12.0
# From MPC191599
77P/Longmore,e,24.3354,14.7486,196.5804,3.618756,0.1431743,0.35230900,170.4877,07/07.0/2026,2000,g  7.0,8.0
# From MPEC 2026-N12
78P/Gehrels,e,6.2577,210.4944,192.8011,3.731681,0.1367248,0.46285323,1.6253,07/07.0/2026,2000,g  5.5,8.0
# From MPC191599
79P/duToit-Hartley,e,3.1491,280.4643,281.7848,2.941647,0.1953521,0.61977229,197.3827,07/07.0/2026,2000,g 16.0,4.0
# From MPC191600
81P/Wild,e,3.2390,136.1100,41.5513,3.450521,0.1537720,0.53809718,199.6614,07/07.0/2026,2000,g  7.0,6.0
# From MPC191600
82P/Gehrels,e,1.1289,239.2839,226.2878,4.136067,0.1171717,0.12377061,344.6516,07/07.0/2026,2000,g  5.0,8.0
# From MPEC 2026-N12
84P/Giclas,e,7.5527,108.0797,281.7382,3.549867,0.1473622,0.51550193,327.4757,07/07.0/2026,2000,g  9.5,8.0
# From unp
85D/Boethin,e,4.1628,332.8249,65.5687,5.047961,0.0869021,0.77534457,188.4323,07/07.0/2026,2000,g  6.5,8.0
# From MPC191600
86P/Wild,e,15.4396,72.0443,180.8833,3.658277,0.1408605,0.35884449,228.8921,07/07.0/2026,2000,g 11.0,6.0
# From MPC191600
87P/Bus,e,3.8677,175.2737,63.3273,4.477260,0.1040365,0.19397213,246.7862,07/07.0/2026,2000,g  7.2,10.0
# From MPEC 2026-N12
88P/Howell,e,4.3819,56.6674,235.8569,3.108966,0.1797960,0.56327634,19.8227,07/07.0/2026,2000,g 11.0,6.0
# From MPC191600
89P/Russell,e,12.0641,41.3313,250.4936,3.752219,0.1356038,0.40680514,112.9323,07/07.0/2026,2000,g 11.5,6.0
# From MPC191600
90P/Gehrels,e,9.6312,13.1352,29.2410,6.056775,0.0661214,0.50991383,218.2914,07/07.0/2026,2000,g  8.5,6.0
# From MPC191600
91P/Russell,e,15.8775,241.6687,356.7864,4.169497,0.1157653,0.25002013,262.5809,07/07.0/2026,2000,g  7.5,6.0
# From MPEC 2026-M30
92P/Sanguin,e,19.4757,181.3283,163.7681,5.347273,0.0797087,0.65991320,330.2315,07/07.0/2026,2000,g 12.0,6.0
# From MPEC 2026-L50
93P/Lovas,e,12.2106,339.5482,75.0489,4.372763,0.1077880,0.61388469,7.0109,07/07.0/2026,2000,g  9.5,6.0
# From MPEC 2026-J11
94P/Russell,e,6.1870,70.8277,92.4058,3.509397,0.1499186,0.36633621,171.2460,07/07.0/2026,2000,g  9.0,6.0
# From MPC191601
96P/Machholz,e,57.5604,93.9530,14.7469,3.030880,0.1867889,0.96173243,233.9030,07/07.0/2026,2000,g 13.0,4.8
# From MPC106348
96P-B/Machholz,e,57.5145,14.4512,94.0908,3.029957,0.1868742,0.96173502,234.0921,07/07.0/2026,2000,g 13.0,4.8
# From MPC191601
97P/Metcalf-Brewington,e,17.9285,184.0560,230.2546,4.772250,0.0945408,0.45936491,151.5173,07/07.0/2026,2000,g  5.5,6.0
# From MPC191601
98P/Takamizawa,e,10.7234,114.2794,161.9531,3.610647,0.1436569,0.60676099,265.8478,07/07.0/2026,2000,g  9.0,8.0
# From MPC191601
99P/Kowal,e,4.3398,28.0376,174.5148,6.092700,0.0655374,0.22916194,101.5614,07/07.0/2026,2000,g  4.5,6.0
# From MPC191601
100P/Hartley,e,25.5697,37.6868,181.8785,3.430127,0.1551454,0.41150713,221.4546,07/07.0/2026,2000,g  9.0,8.0
# From MPC191601
101P/Chernykh,e,5.0485,116.1115,278.0135,5.820373,0.0701904,0.59485131,166.2411,07/07.0/2026,2000,g 10.0,4.8
# From MPC191601
102P/Shoemaker,e,25.8433,339.3407,20.6825,3.821728,0.1319211,0.45563899,263.0649,07/07.0/2026,2000,g  6.5,8.0
# From MPC191602
103P/Hartley,e,13.6001,219.7644,181.3347,3.476524,0.1520499,0.69311779,151.8804,07/07.0/2026,2000,g  8.5,8.0
# From MPC191602
104P/Kowal,e,5.6995,207.1469,227.3497,3.208385,0.1715040,0.66574528,280.5915,07/07.0/2026,2000,g 16.0,4.0
# From MPC191602
105P/SingerBrewster,e,9.1695,192.3839,46.2944,3.472162,0.1523365,0.40926211,80.7821,07/07.0/2026,2000,g 11.5,6.0
# From MPC191602
106P/Schuster,e,19.5224,48.8627,353.7977,3.769254,0.1346855,0.59309281,240.1870,07/07.0/2026,2000,g 14.0,4.8
# From MPC191602
108P/Ciffreo,e,11.4281,50.2702,354.5620,3.744844,0.1360045,0.55523150,239.5028,07/07.0/2026,2000,g  8.0,12.0
# From MPC191602
110P/Hartley,e,11.7111,287.4803,167.6139,3.603073,0.1441101,0.31920315,247.9334,07/07.0/2026,2000,g  1.0,12.0
# From MPC191602
111P/Helin-Roman-Crockett,e,4.2259,89.7312,1.6530,4.153259,0.1164449,0.10703884,214.4661,07/07.0/2026,2000,g  5.0,8.0
# From MPC191602
112P/Urata-Niijima,e,24.2042,31.7939,21.5861,3.520972,0.1491799,0.59069193,348.5339,07/07.0/2026,2000,g 14.0,6.0
# From MPC191602
113P/Spitaler,e,5.2880,306.6099,115.7706,3.697289,0.1386369,0.41922088,207.4643,07/07.0/2026,2000,g 13.5,4.0
# From MPC191603
114P/Wiseman-Skiff,e,18.3036,271.0212,172.8519,3.538225,0.1480901,0.55607750,349.6335,07/07.0/2026,2000,g 11.5,6.0
# From MPC191603
115P/Maury,e,11.7266,175.7902,121.0761,4.267204,0.1118121,0.52005109,242.7327,07/07.0/2026,2000,g 10.5,6.0
# From MPC191603
116P/Wild,e,3.6055,20.9589,173.1554,3.484512,0.1515274,0.37127505,219.8008,07/07.0/2026,2000,g  2.5,10.0
# From MPC194200
117P/Helin-Roman-Alu,e,8.6392,58.6946,225.0619,4.131808,0.1173529,0.24838677,171.4956,07/07.0/2026,2000,g  2.5,8.0
# From MPC191603
118P/Shoemaker-Levy,e,10.0940,142.0403,314.9950,3.349219,0.1608010,0.45369349,212.2443,07/07.0/2026,2000,g 12.0,4.0
# From MPC191603
119P/Parker-Hartley,e,7.3926,104.5422,322.3104,3.811100,0.1324733,0.38766350,188.7539,07/07.0/2026,2000,g  3.5,8.0
# From MPC191603
120P/Mueller,e,8.4779,358.6325,36.8442,3.971483,0.1245303,0.37361146,235.0370,07/07.0/2026,2000,g 12.0,4.0
# From MPEC 2026-K60
121P/Shoemaker-Holt,e,20.1611,94.1077,12.1574,4.592277,0.1001525,0.18654408,110.2923,07/07.0/2026,2000,g  6.5,8.0
# From MPEC 2026-N12
123P/West-Hartley,e,15.2813,45.8595,103.8797,3.888281,0.1285487,0.44481751,350.1135,07/07.0/2026,2000,g  4.0,10.0
# From MPEC 2026-KB8
124P/Mrkos,e,31.4062,359.9469,185.1233,3.377023,0.1588192,0.48624478,2.1276,07/07.0/2026,2000,g 13.5,2.8
# From MPC191604
125P/Spacewatch,e,9.9863,153.1542,87.0646,3.126765,0.1782630,0.51210640,151.8572,07/07.0/2026,2000,g 13.0,6.0
# From MPC191604
126P/IRAS,e,45.8779,357.8508,356.5275,5.622774,0.0739228,0.69571435,81.2084,07/07.0/2026,2000,g  6.0,8.0
# From MPEC 2026-L50
127P/Holt-Olmstead,e,14.2899,13.6121,6.3259,3.455696,0.1534266,0.35827299,219.0785,07/07.0/2026,2000,g 11.0,6.0
# From MPC194200
128P/Shoemaker-Holt,e,4.3717,214.3065,210.5709,4.480829,0.1039122,0.32227017,358.9533,07/07.0/2026,2000,g  8.5,4.0
# From MPC191604
129P/Shoemaker-Levy,e,3.4411,184.8256,308.1715,4.295422,0.1107122,0.08594928,144.9544,07/07.0/2026,2000,g 11.0,4.0
# From MPC191604
130P/McNaught-Hughes,e,5.9474,69.4500,248.0926,3.417284,0.1560208,0.45774357,126.6610,07/07.0/2026,2000,g 10.0,6.0
# From MPC191604
131P/Mueller,e,7.3621,214.1312,179.2897,3.674076,0.1399529,0.34463653,19.7654,07/07.0/2026,2000,g 11.0,4.0
# From MPC191604
132P/Helin-Roman-Alu,e,5.3752,173.9547,216.5274,3.893843,0.1282734,0.56347355,217.7955,07/07.0/2026,2000,g 11.0,6.0
# From MPC191604
134P/Kowal-Vavrova,e,4.3316,202.0195,18.5541,6.278788,0.0626456,0.58585795,279.8138,07/07.0/2026,2000,g 11.5,4.0
# From MPC191605
135P/Shoemaker-Levy,e,6.0614,213.0135,22.2836,3.802525,0.1329217,0.29316115,206.6519,07/07.0/2026,2000,g  7.0,8.0
# From MPC194200
136P/Mueller,e,9.4310,137.3860,225.6973,4.194431,0.1147346,0.29372437,62.8776,07/07.0/2026,2000,g 11.0,4.0
# From MPEC 2026-M30
137P/Shoemaker-Levy,e,4.8574,232.9303,141.1786,4.525370,0.1023819,0.57252581,282.8323,07/07.0/2026,2000,g 11.0,4.0
# From MPC194200
138P/Shoemaker-Levy,e,10.0985,309.2185,95.7647,3.616593,0.1433028,0.53152505,14.9980,07/07.0/2026,2000,g 15.0,6.0
# From MPEC 2026-L50
139P/Vaisala-Oterma,e,2.3383,242.1171,166.1177,4.511287,0.1028616,0.24799764,320.7749,07/07.0/2026,2000,g  9.5,4.0
# From MPC191605
140P/Bowell-Skiff,e,3.6690,343.3375,172.1579,6.415773,0.0606500,0.69477744,243.7605,07/07.0/2026,2000,g 11.5,6.0
# From MPC191605
141P/Machholz,e,13.9601,241.7707,153.6520,3.056570,0.1844389,0.73582894,13.8341,07/07.0/2026,2000,g 12.0,12.0
# From MPEC 2015-KD9
141P-A/Machholz,e,13.9528,241.7976,153.6420,3.056919,0.1844073,0.73583836,13.7599,07/07.0/2026,2000,g 12.0,12.0
# From MPC 37026
